[{"OBJECT_NAME":"UKUBE-1","OBJECT_ID":"2014-037F","EPOCH":"2026-03-09T22:45:32.746752","MEAN_MOTION":15.11800455,"ECCENTRICITY":0.00030762,"INCLINATION":98.4237,"RA_OF_ASC_NODE":61.9367,"ARG_OF_PERICENTER":110.8829,"MEAN_ANOMALY":249.2728,"EPHEMERIS_TYPE":0,"CLASSIFICATION_TYPE":"U","NORAD_CAT_ID":40074,"ELEMENT_SET_NO":999,"REV_AT_EPOCH":63355,"BSTAR":0.00066503825,"MEAN_MOTION_DOT":0.0001129,"MEAN_MOTION_DDOT":0},{"OBJECT_NAME":"STARLINK-5689","OBJECT_ID":"2023-015AB","EPOCH":"2026-03-09T22:00:01.999584","MEAN_MOTION":15.12014611,"ECCENTRICITY":6.179e-5,"INCLINATION":42.9998,"RA_OF_ASC_NODE":337.6137,"ARG_OF_PERICENTER":254.0125,"MEAN_ANOMALY":325.8461,"EPHEMERIS_TYPE":0,"CLASSIFICATION_TYPE":"U","NORAD_CAT_ID":55474,"ELEMENT_SET_NO":999,"REV_AT_EPOCH":573,"BSTAR":0.0012439246,"MEAN_MOTION_DOT":0.00021586,"MEAN_MOTION_DDOT":0}]
